{"type":"FeatureCollection","features":[{"type":"Feature","properties":{"name":"Peace","scalerank":1,"na":0,"zb":"b2","len":23.26},"geometry":{"type":"LineString","coordinates":[[-133.97864,69.53847],[-133.47855,69.03165],[-132.9269,68.52107],[-132.18399,68.03237],[-131.26642,67.5765],[-130.20122,67.16054],[-129.10306,66.75107],[-127.96152,66.35313],[-126.82592,65.94621],[-125.8355,65.4733],[-124.84953,64.98995],[-123.91779,64.47998],[-123.08508,63.92785],[-122.25237,63.36463],[-121.33813,62.81756],[-120.37493,62.27689]]}},{"type":"Feature","properties":{"name":"Ob","scalerank":1,"na":0,"zb":"b2","len":16.76},"geometry":{"type":"LineString","coordinates":[[72.15991,55.50795],[72.64116,54.66768],[73.30173,53.85275],[74.1009,53.06707],[74.9954,52.30445],[75.96908,51.56478],[77.04552,50.87136],[78.20979,50.22899],[79.46342,49.64859],[80.76872,49.11078],[82.11349,48.61214],[83.08485,47.83446]]}},{"type":"Feature","properties":{"name":"Danube","scalerank":1,"na":0,"zb":"b2","len":24.74},"geometry":{"type":"LineString","coordinates":[[30.26445,44.40743],[28.88912,43.88528],[27.50766,43.36807],[26.02213,43.03081],[24.48211,42.90674],[22.94069,43.0067],[21.46666,43.34581],[20.10311,43.88263],[18.9347,44.60862],[18.10796,45.53435],[17.4842,46.51498],[16.23896,47.12548],[14.76983,47.46836],[13.24928,47.68448],[11.70017,47.73982],[10.18114,47.53835],[8.73004,47.15785]]}},{"type":"Feature","properties":{"name":"Amazon","scalerank":1,"na":0,"zb":"b2","len":24.43},"geometry":{"type":"LineString","coordinates":[[-49.82056,-1.15171],[-51.10879,-1.93437],[-52.40122,-2.70923],[-53.78147,-3.31397],[-55.26054,-3.58141],[-56.6972,-4.03319],[-58.13218,-4.49292],[-59.59248,-4.86372],[-61.08282,-5.08546],[-62.58385,-5.11137],[-64.06571,-4.85751],[-65.53012,-4.50439],[-67.01616,-4.50319],[-68.42348,-5.0354],[-69.90108,-5.33147],[-71.40689,-5.35679],[-72.71607,-5.96024]]}},{"type":"Feature","properties":{"name":"Congo","scalerank":1,"na":0,"zb":"b2","len":15.65},"geometry":{"type":"LineString","coordinates":[[13.96858,-3.17966],[14.96355,-2.01219],[15.72286,-0.66992],[16.58176,0.61123],[17.6412,1.72929],[18.93374,2.56222],[20.38939,3.05552],[21.92315,3.16875],[23.43874,2.90289],[24.83861,2.26967],[25.9576,1.22122],[26.70661,-0.11885],[27.17978,-1.58596]]}},{"type":"Feature","properties":{"name":"Lena","scalerank":1,"na":0,"zb":"b2","len":19.08},"geometry":{"type":"LineString","coordinates":[[119.06508,60.90832],[117.4881,61.01934],[115.92572,61.00428],[114.47022,60.68831],[113.01471,60.3692],[111.6944,59.9318],[110.43162,59.44126],[109.16884,58.94351],[107.9181,58.43064],[106.70057,57.88832],[105.51537,57.32002],[104.61324,56.60952],[104.34472,55.73663],[104.68894,54.85181],[105.47376,54.05052]]}},{"type":"Feature","properties":{"name":"Mississippi","scalerank":1,"na":0,"zb":"b2","len":34.88},"geometry":{"type":"LineString","coordinates":[[-88.35327,29.97991],[-89.35771,30.94703],[-89.97318,32.09213],[-89.64438,33.32367],[-89.17165,34.51011],[-88.71332,35.68319],[-88.37735,36.86677],[-88.54164,38.04747],[-89.32845,39.03825],[-90.56155,39.6842],[-92.00799,39.98526],[-93.37243,40.45181],[-94.31735,41.33554],[-95.11847,42.28618],[-96.0333,43.16305],[-97.01245,43.99119],[-98.12502,44.71713],[-99.05711,45.545],[-99.52217,46.53099],[-100.16642,47.45719],[-101.22749,48.16537],[-102.5719,48.60205],[-104.05453,48.73149],[-105.55821,48.71486],[-107.06024,48.64094]]}},{"type":"Feature","properties":{"name":"Nile","scalerank":1,"na":0,"zb":"b2","len":20.91},"geometry":{"type":"LineString","coordinates":[[31.705,20.34843],[33.19363,20.26761],[34.40734,19.49901],[34.88723,18.19446],[34.68277,16.77227],[34.22291,15.38925],[33.96367,13.94848],[33.86008,12.48133],[33.63799,11.0254],[33.18716,9.60717],[32.37384,8.37008],[32.70526,6.93389],[33.06166,5.47368],[33.35619,3.99602],[33.77618,2.54619]]}},{"type":"Feature","properties":{"name":"Yangtze","scalerank":1,"na":0,"zb":"b2","len":25.54},"geometry":{"type":"LineString","coordinates":[[113.27079,31.15536],[111.76051,31.48782],[110.28214,31.91995],[108.736,31.96685],[107.31236,31.41119],[105.99431,30.68043],[104.64783,29.98731],[103.28658,29.35254],[102.2995,28.29558],[101.17021,27.94611],[100.55864,29.21111],[100.07262,30.50672],[99.53551,31.76857],[98.82365,32.94654],[97.81502,33.94703],[96.5966,34.76],[95.20274,35.34531]]}},{"type":"Feature","properties":{"name":"Brahmaputra","scalerank":1,"na":0,"zb":"b2","len":23.39},"geometry":{"type":"LineString","coordinates":[[89.148,22.42224],[88.71651,23.81359],[88.65053,25.22409],[89.32058,26.45965],[90.57501,27.27684],[92.04519,27.75653],[92.45191,27.97191],[90.87939,27.93214],[89.30637,27.95213],[87.73479,28.01305],[86.16703,28.12279],[84.6121,28.32527],[83.10073,28.70049],[81.71114,29.34131]]}},{"type":"Feature","properties":{"name":"Paran\u00e1","scalerank":1,"na":0,"zb":"b2","len":23.39},"geometry":{"type":"LineString","coordinates":[[-59.28031,-34.92183],[-60.466,-34.17667],[-61.26464,-33.13426],[-61.51376,-31.89729],[-61.39234,-30.63265],[-60.9586,-29.39742],[-60.46298,-28.16434],[-59.94742,-26.92331],[-59.38666,-25.68459],[-58.9504,-24.39895],[-58.97079,-23.04161],[-59.11217,-21.67131],[-59.04132,-20.28225],[-58.8112,-18.89497],[-58.32273,-17.55995],[-57.68504,-16.26985],[-57.01068,-14.98845],[-56.33631,-13.69933]]}},{"type":"Feature","properties":{"name":"Mekong","scalerank":1,"na":0,"zb":"b2","len":24.96},"geometry":{"type":"LineString","coordinates":[[105.10422,8.7948],[104.38669,10.16925],[103.99251,11.64396],[104.33413,13.10275],[104.16104,14.60698],[103.56093,15.99271],[102.3292,16.80122],[101.01658,17.52495],[100.40164,18.84216],[99.47578,19.90787],[99.1602,21.30964],[99.03908,22.73384],[98.5174,24.09016],[98.04392,25.44655],[97.6138,26.79943],[97.22236,28.14565],[96.70306,29.44164]]}}]}